[{"OBJECT_NAME":"WILDFIRE 3","OBJECT_ID":"2023-133C","EPOCH":"2026-03-09T13:27:52.032096","MEAN_MOTION":13.86127534,"ECCENTRICITY":0.0007641,"INCLINATION":80.9933,"RA_OF_ASC_NODE":101.7887,"ARG_OF_PERICENTER":262.5942,"MEAN_ANOMALY":97.4346,"EPHEMERIS_TYPE":0,"CLASSIFICATION_TYPE":"U","NORAD_CAT_ID":57758,"ELEMENT_SET_NO":999,"REV_AT_EPOCH":12729,"BSTAR":6.7379e-5,"MEAN_MOTION_DOT":8.9e-7,"MEAN_MOTION_DDOT":0},{"OBJECT_NAME":"THORAD AGENA D DEB","OBJECT_ID":"1970-025RH","EPOCH":"2026-03-09T06:34:04.913472","MEAN_MOTION":13.86807706,"ECCENTRICITY":0.001574,"INCLINATION":99.9483,"RA_OF_ASC_NODE":80.5722,"ARG_OF_PERICENTER":36.784,"MEAN_ANOMALY":323.4391,"EPHEMERIS_TYPE":0,"CLASSIFICATION_TYPE":"U","NORAD_CAT_ID":42503,"ELEMENT_SET_NO":999,"REV_AT_EPOCH":62051,"BSTAR":0.0010592127,"MEAN_MOTION_DOT":1.187e-5,"MEAN_MOTION_DDOT":0}]
